[{"OBJECT_NAME":"STARLINK-36855","OBJECT_ID":"2026-044W","EPOCH":"2026-03-22T04:00:01.999584","MEAN_MOTION":15.75165303,"ECCENTRICITY":0.00012073,"INCLINATION":97.2839,"RA_OF_ASC_NODE":41.955,"ARG_OF_PERICENTER":117.0529,"MEAN_ANOMALY":343.9227,"EPHEMERIS_TYPE":0,"CLASSIFICATION_TYPE":"U","NORAD_CAT_ID":68121,"ELEMENT_SET_NO":999,"REV_AT_EPOCH":335,"BSTAR":5.7886317e-5,"MEAN_MOTION_DOT":8.504e-5,"MEAN_MOTION_DDOT":0},{"OBJECT_NAME":"STARLINK-36366","OBJECT_ID":"2026-044X","EPOCH":"2026-03-22T04:00:01.999584","MEAN_MOTION":15.7513753,"ECCENTRICITY":0.00010676,"INCLINATION":97.2836,"RA_OF_ASC_NODE":41.9556,"ARG_OF_PERICENTER":89.6142,"MEAN_ANOMALY":13.3714,"EPHEMERIS_TYPE":0,"CLASSIFICATION_TYPE":"U","NORAD_CAT_ID":68122,"ELEMENT_SET_NO":999,"REV_AT_EPOCH":340,"BSTAR":0.00033663005,"MEAN_MOTION_DOT":0.00050262,"MEAN_MOTION_DDOT":0},{"OBJECT_NAME":"STARLINK-36922","OBJECT_ID":"2026-044Y","EPOCH":"2026-03-22T04:00:01.999584","MEAN_MOTION":15.75718453,"ECCENTRICITY":0.00010447,"INCLINATION":97.2839,"RA_OF_ASC_NODE":41.9622,"ARG_OF_PERICENTER":93.4041,"MEAN_ANOMALY":23.273,"EPHEMERIS_TYPE":0,"CLASSIFICATION_TYPE":"U","NORAD_CAT_ID":68123,"ELEMENT_SET_NO":999,"REV_AT_EPOCH":340,"BSTAR":-0.0055053593,"MEAN_MOTION_DOT":-0.00768708,"MEAN_MOTION_DDOT":0},{"OBJECT_NAME":"STARLINK-36938","OBJECT_ID":"2026-044Z","EPOCH":"2026-03-22T04:00:01.999584","MEAN_MOTION":15.80794691,"ECCENTRICITY":0.00015453,"INCLINATION":97.2839,"RA_OF_ASC_NODE":41.9679,"ARG_OF_PERICENTER":111.2655,"MEAN_ANOMALY":19.1274,"EPHEMERIS_TYPE":0,"CLASSIFICATION_TYPE":"U","NORAD_CAT_ID":68124,"ELEMENT_SET_NO":999,"REV_AT_EPOCH":340,"BSTAR":0.00025026419,"MEAN_MOTION_DOT":0.00048014,"MEAN_MOTION_DDOT":0},{"OBJECT_NAME":"STARLINK-36839","OBJECT_ID":"2026-044AA","EPOCH":"2026-03-22T04:00:01.999584","MEAN_MOTION":15.75328833,"ECCENTRICITY":0.00010618,"INCLINATION":97.2838,"RA_OF_ASC_NODE":41.9597,"ARG_OF_PERICENTER":91.0906,"MEAN_ANOMALY":19.8058,"EPHEMERIS_TYPE":0,"CLASSIFICATION_TYPE":"U","NORAD_CAT_ID":68125,"ELEMENT_SET_NO":999,"REV_AT_EPOCH":335,"BSTAR":-0.0016482857,"MEAN_MOTION_DOT":-0.00240628,"MEAN_MOTION_DDOT":0},{"OBJECT_NAME":"ECHOSTAR 25","OBJECT_ID":"2026-045A","EPOCH":"2026-03-19T02:28:16.915584","MEAN_MOTION":1.79885153,"ECCENTRICITY":0.47494248,"INCLINATION":10.0329,"RA_OF_ASC_NODE":67.2654,"ARG_OF_PERICENTER":180.744,"MEAN_ANOMALY":178.4031,"EPHEMERIS_TYPE":0,"CLASSIFICATION_TYPE":"U","NORAD_CAT_ID":68126,"ELEMENT_SET_NO":999,"REV_AT_EPOCH":19,"BSTAR":0,"MEAN_MOTION_DOT":-4.7e-7,"MEAN_MOTION_DDOT":0},{"OBJECT_NAME":"ICOR SV","OBJECT_ID":"2026-046A","EPOCH":"2026-03-13T21:49:43.816224","MEAN_MOTION":15.82606913,"ECCENTRICITY":0.0140888,"INCLINATION":123.0797,"RA_OF_ASC_NODE":224.1306,"ARG_OF_PERICENTER":188.2572,"MEAN_ANOMALY":171.617,"EPHEMERIS_TYPE":0,"CLASSIFICATION_TYPE":"U","NORAD_CAT_ID":68127,"ELEMENT_SET_NO":999,"REV_AT_EPOCH":29,"BSTAR":0.0010434,"MEAN_MOTION_DOT":0.00482503,"MEAN_MOTION_DDOT":9.2133e-5},{"OBJECT_NAME":"FIREFLY ALPHA R/B","OBJECT_ID":"2026-046B","EPOCH":"2026-03-22T06:57:17.900928","MEAN_MOTION":15.56694172,"ECCENTRICITY":0.00149443,"INCLINATION":123.0929,"RA_OF_ASC_NODE":260.6731,"ARG_OF_PERICENTER":5.1244,"MEAN_ANOMALY":354.9967,"EPHEMERIS_TYPE":0,"CLASSIFICATION_TYPE":"U","NORAD_CAT_ID":68128,"ELEMENT_SET_NO":999,"REV_AT_EPOCH":160,"BSTAR":0.00059071763,"MEAN_MOTION_DOT":0.00042823,"MEAN_MOTION_DDOT":0},{"OBJECT_NAME":"GUOWANG GROUP 20 OBJECT A","OBJECT_ID":"2026-047A","EPOCH":"2026-03-19T01:19:59.034432","MEAN_MOTION":14.05638332,"ECCENTRICITY":0.00088996,"INCLINATION":50.0054,"RA_OF_ASC_NODE":32.2608,"ARG_OF_PERICENTER":282.8383,"MEAN_ANOMALY":77.1528,"EPHEMERIS_TYPE":0,"CLASSIFICATION_TYPE":"U","NORAD_CAT_ID":68129,"ELEMENT_SET_NO":999,"REV_AT_EPOCH":88,"BSTAR":2.225374e-6,"MEAN_MOTION_DOT":-1.48e-6,"MEAN_MOTION_DDOT":0},{"OBJECT_NAME":"GUOWANG GROUP 20 OBJECT B","OBJECT_ID":"2026-047B","EPOCH":"2026-03-19T01:19:13.162080","MEAN_MOTION":14.05761022,"ECCENTRICITY":0.00075469,"INCLINATION":50.0044,"RA_OF_ASC_NODE":32.2582,"ARG_OF_PERICENTER":277.972,"MEAN_ANOMALY":82.0329,"EPHEMERIS_TYPE":0,"CLASSIFICATION_TYPE":"U","NORAD_CAT_ID":68130,"ELEMENT_SET_NO":999,"REV_AT_EPOCH":87,"BSTAR":2.531813e-6,"MEAN_MOTION_DOT":-1.48e-6,"MEAN_MOTION_DDOT":0},{"OBJECT_NAME":"GUOWANG GROUP 20 OBJECT C","OBJECT_ID":"2026-047C","EPOCH":"2026-03-19T14:57:50.348160","MEAN_MOTION":14.05810373,"ECCENTRICITY":0.00081141,"INCLINATION":50.0037,"RA_OF_ASC_NODE":29.9293,"ARG_OF_PERICENTER":287.016,"MEAN_ANOMALY":72.9856,"EPHEMERIS_TYPE":0,"CLASSIFICATION_TYPE":"U","NORAD_CAT_ID":68131,"ELEMENT_SET_NO":999,"REV_AT_EPOCH":96,"BSTAR":2.43655e-6,"MEAN_MOTION_DOT":-1.48e-6,"MEAN_MOTION_DDOT":0},{"OBJECT_NAME":"GUOWANG GROUP 20 OBJECT D","OBJECT_ID":"2026-047D","EPOCH":"2026-03-19T03:00:48.676032","MEAN_MOTION":14.05881519,"ECCENTRICITY":0.0008434,"INCLINATION":50.0078,"RA_OF_ASC_NODE":31.9684,"ARG_OF_PERICENTER":289.4802,"MEAN_ANOMALY":70.5192,"EPHEMERIS_TYPE":0,"CLASSIFICATION_TYPE":"U","NORAD_CAT_ID":68132,"ELEMENT_SET_NO":999,"REV_AT_EPOCH":88,"BSTAR":3.692038e-6,"MEAN_MOTION_DOT":-1.46e-6,"MEAN_MOTION_DDOT":0},{"OBJECT_NAME":"GUOWANG GROUP 20 OBJECT E","OBJECT_ID":"2026-047E","EPOCH":"2026-03-17T01:32:12.575616","MEAN_MOTION":14.05931996,"ECCENTRICITY":0.00068308,"INCLINATION":50.0041,"RA_OF_ASC_NODE":40.3867,"ARG_OF_PERICENTER":274.9069,"MEAN_ANOMALY":85.1056,"EPHEMERIS_TYPE":0,"CLASSIFICATION_TYPE":"U","NORAD_CAT_ID":68133,"ELEMENT_SET_NO":999,"REV_AT_EPOCH":60,"BSTAR":4.63008e-6,"MEAN_MOTION_DOT":-1.45e-6,"MEAN_MOTION_DDOT":0},{"OBJECT_NAME":"GUOWANG GROUP 20 OBJECT F","OBJECT_ID":"2026-047F","EPOCH":"2026-03-19T23:27:41.427648","MEAN_MOTION":14.06079851,"ECCENTRICITY":0.0006391,"INCLINATION":50.0091,"RA_OF_ASC_NODE":28.4795,"ARG_OF_PERICENTER":289.3722,"MEAN_ANOMALY":70.6492,"EPHEMERIS_TYPE":0,"CLASSIFICATION_TYPE":"U","NORAD_CAT_ID":68134,"ELEMENT_SET_NO":999,"REV_AT_EPOCH":100,"BSTAR":2.0813e-6,"MEAN_MOTION_DOT":-1.49e-6,"MEAN_MOTION_DDOT":0},{"OBJECT_NAME":"GUOWANG GROUP 20 OBJECT G","OBJECT_ID":"2026-047G","EPOCH":"2026-03-22T06:06:15.105600","MEAN_MOTION":14.03854153,"ECCENTRICITY":0.00015462,"INCLINATION":50.01,"RA_OF_ASC_NODE":19.1976,"ARG_OF_PERICENTER":289.1589,"MEAN_ANOMALY":70.9148,"EPHEMERIS_TYPE":0,"CLASSIFICATION_TYPE":"U","NORAD_CAT_ID":68135,"ELEMENT_SET_NO":999,"REV_AT_EPOCH":133,"BSTAR":0.0001151048,"MEAN_MOTION_DOT":3.1e-7,"MEAN_MOTION_DDOT":0},{"OBJECT_NAME":"GUOWANG GROUP 20 OBJECT H","OBJECT_ID":"2026-047H","EPOCH":"2026-03-20T19:56:00.151584","MEAN_MOTION":14.05754608,"ECCENTRICITY":0.00095465,"INCLINATION":50.0016,"RA_OF_ASC_NODE":24.9935,"ARG_OF_PERICENTER":285.3143,"MEAN_ANOMALY":74.6707,"EPHEMERIS_TYPE":0,"CLASSIFICATION_TYPE":"U","NORAD_CAT_ID":68136,"ELEMENT_SET_NO":999,"REV_AT_EPOCH":112,"BSTAR":4.305167e-6,"MEAN_MOTION_DOT":-1.45e-6,"MEAN_MOTION_DDOT":0}]
