STARLINK-36855          
1 68121U 26044W   26081.16668981  .00008504  00000+0  57886-4 0  9990
2 68121  97.2839  41.9550 0001207 117.0529 343.9227 15.75165303  3354
STARLINK-36366          
1 68122U 26044X   26081.16668981  .00050262  00000+0  33663-3 0  9995
2 68122  97.2836  41.9556 0001067  89.6142  13.3714 15.75137530  3403
STARLINK-36922          
1 68123U 26044Y   26081.16668981 -.00768708  00000+0 -55054-2 0  9996
2 68123  97.2839  41.9622 0001044  93.4041  23.2730 15.75718453  3404
STARLINK-36938          
1 68124U 26044Z   26081.16668981  .00048014  00000+0  25026-3 0  9993
2 68124  97.2839  41.9679 0001545 111.2655  19.1274 15.80794691  3404
STARLINK-36839          
1 68125U 26044AA  26081.16668981 -.00240628  00000+0 -16483-2 0  9997
2 68125  97.2838  41.9597 0001061  91.0906  19.8058 15.75328833  3356
ECHOSTAR 25             
1 68126U 26045A   26078.10297356 -.00000047  00000+0  00000+0 0  9996
2 68126  10.0329  67.2654 4749424 180.7440 178.4031  1.79885153   199
ICOR SV                 
1 68127U 26046A   26072.90953491  .00482503  92133-4  10434-2 0  9997
2 68127 123.0797 224.1306 0140888 188.2572 171.6170 15.82606913   290
FIREFLY ALPHA R/B       
1 68128U 26046B   26081.28979052  .00042823  00000+0  59072-3 0  9996
2 68128 123.0929 260.6731 0014944   5.1244 354.9967 15.56694172  1602
GUOWANG GROUP 20 OBJECT*
1 68129U 26047A   26078.05554438 -.00000148  00000+0  22254-5 0  9995
2 68129  50.0054  32.2608 0008899 282.8383  77.1528 14.05638332   882
GUOWANG GROUP 20 OBJECT*
1 68130U 26047B   26078.05501345 -.00000148  00000+0  25318-5 0  9990
2 68130  50.0044  32.2582 0007546 277.9720  82.0329 14.05761022   878
GUOWANG GROUP 20 OBJECT*
1 68131U 26047C   26078.62349940 -.00000148  00000+0  24365-5 0  9996
2 68131  50.0037  29.9293 0008114 287.0160  72.9856 14.05810373   962
GUOWANG GROUP 20 OBJECT*
1 68132U 26047D   26078.12556338 -.00000146  00000+0  36920-5 0  9991
2 68132  50.0078  31.9684 0008434 289.4802  70.5192 14.05881519   887
GUOWANG GROUP 20 OBJECT*
1 68133U 26047E   26076.06403444 -.00000145  00000+0  46301-5 0  9995
2 68133  50.0041  40.3867 0006830 274.9069  85.1056 14.05931996   603
GUOWANG GROUP 20 OBJECT*
1 68134U 26047F   26078.97756282 -.00000149  00000+0  20813-5 0  9993
2 68134  50.0091  28.4795 0006391 289.3722  70.6492 14.06079851  1006
GUOWANG GROUP 20 OBJECT*
1 68135U 26047G   26081.25434150  .00000031  00000+0  11510-3 0  9997
2 68135  50.0100  19.1976 0001546 289.1589  70.9148 14.03854153  1332
GUOWANG GROUP 20 OBJECT*
1 68136U 26047H   26079.83055731 -.00000145  00000+0  43052-5 0  9998
2 68136  50.0016  24.9935 0009546 285.3143  74.6707 14.05754608  1125
